NORAD_CAT_ID,OBJECT_NAME,OBJECT_TYPE,EPOCH,MEAN_MOTION,ECCENTRICITY,INCLINATION,RA_OF_ASC_NODE,ARG_OF_PERICENTER,MEAN_ANOMALY,BSTAR,MEAN_MOTION_DOT,MEAN_MOTION_DDOT,TLE_LINE0,TLE_LINE1,TLE_LINE2,SEMIMAJOR_AXIS,PERIOD,APOGEE,PERIGEE,DECAYED
50185.0,STARLINK-3279,PAYLOAD,2024-05-05 22:37:39,15.08869071,0.0001432,53.2182,29.2388,73.2857,286.8293,0.0012095,0.00019029,0.0,0 STARLINK-3279,1 50185U 21125AF  24126.94281466  .00019029  00000-0  12095-2 0  9995,2 50185  53.2182  29.2388 0001432  73.2857 286.8293 15.08869071135042,6917.792,95.436,540.647,538.666,0.0
50185.0,STARLINK-3279,PAYLOAD,2024-05-06 00:13:02,15.08871852,0.0001426,53.2183,28.9412,74.0196,286.0953,0.0012398,0.00019516,0.0,0 STARLINK-3279,1 50185U 21125AF  24127.00905329  .00019516  00000-0  12398-2 0  9991,2 50185  53.2183  28.9412 0001426  74.0196 286.0953 15.08871852135051,6917.783,95.436,540.635,538.662,0.0
50185.0,STARLINK-3279,PAYLOAD,2024-05-06 20:53:01,15.08874096,0.0001429,53.2185,25.0757,73.0088,287.106,0.00082454,0.00012871,0.0,0 STARLINK-3279,1 50185U 21125AF  24127.87016192  .00012871  00000-0  82454-3 0  9995,2 50185  53.2185  25.0757 0001429  73.0088 287.1060 15.08874096134700,6917.776,95.435,540.63,538.653,0.0
50185.0,STARLINK-3279,PAYLOAD,2024-05-06 22:28:25,15.08870041,0.0001401,53.2188,24.7783,71.8531,288.2614,0.00062013,9.603e-05,0.0,0 STARLINK-3279,1 50185U 21125AF  24127.93640120  .00009603  00000-0  62013-3 0  9994,2 50185  53.2188  24.7783 0001401  71.8531 288.2614 15.08870041135194,6917.789,95.436,540.623,538.684,0.0
50185.0,STARLINK-3279,PAYLOAD,2024-05-07 00:03:48,15.08860608,0.0001506,53.2187,24.4784,75.152,284.9639,0.0004657,7.136e-05,0.0,0 STARLINK-3279,1 50185U 21125AF  24128.00264117  .00007136  00000-0  46570-3 0  9990,2 50185  53.2187  24.4784 0001506  75.1520 284.9639 15.08860608134728,6917.817,95.436,540.724,538.641,0.0
50185.0,STARLINK-3279,PAYLOAD,2024-05-07 09:36:06,15.08869148,0.000148,53.219,22.6947,77.3839,282.7319,0.00031862,4.79e-05,0.0,0 STARLINK-3279,1 50185U 21125AF  24128.40007283  .00004790  00000-0  31862-3 0  9994,2 50185  53.2190  22.6947 0001480  77.3839 282.7319 15.08869148135260,6917.791,95.436,540.68,538.632,0.0
50185.0,STARLINK-3279,PAYLOAD,2024-05-07 20:43:49,15.0882731,0.0001418,53.2185,20.6174,79.9958,280.1194,-0.00047143,-7.78e-05,0.0,0 STARLINK-3279,1 50185U 21125AF  24128.86376749 -.00007780  00000-0 -47143-3 0  9993,2 50185  53.2185  20.6174 0001418  79.9958 280.1194 15.08827310134857,6917.919,95.438,540.765,538.803,0.0
50185.0,STARLINK-3279,PAYLOAD,2024-05-07 22:19:12,15.08827943,0.0001464,53.2182,20.3205,83.1224,276.9935,-0.00044404,-7.346e-05,0.0,0 STARLINK-3279,1 50185U 21125AF  24128.93000740 -.00007346  00000-0 -44404-3 0  9991,2 50185  53.2182  20.3205 0001464  83.1224 276.9935 15.08827943135343,6917.917,95.438,540.795,538.769,0.0
50185.0,STARLINK-3279,PAYLOAD,2024-05-08 09:26:54,15.08839656,0.0001208,53.2178,18.239,83.2557,276.8572,-7.2062e-05,-1.435e-05,0.0,0 STARLINK-3279,1 50185U 21125AF  24129.39368738 -.00001435  00000-0 -72062-4 0  9991,2 50185  53.2178  18.2390 0001208  83.2557 276.8572 15.08839656134939,6917.881,95.438,540.582,538.911,0.0
50185.0,STARLINK-3279,PAYLOAD,2024-05-08 22:09:59,15.08840802,0.0001334,53.2176,15.8597,85.7923,274.3221,0.000131,1.798e-05,0.0,0 STARLINK-3279,1 50185U 21125AF  24129.92360689  .00001798  00000-0  13100-3 0  9994,2 50185  53.2176  15.8597 0001334  85.7923 274.3221 15.08840802135494,6917.878,95.438,540.666,538.82,0.0
50185.0,STARLINK-3279,PAYLOAD,2024-05-09 09:17:41,15.08856251,0.0001376,53.2181,13.7804,92.4052,267.7097,0.00069706,0.00010828,0.0,0 STARLINK-3279,1 50185U 21125AF  24130.38728506  .00010828  00000-0  69706-3 0  9999,2 50185  53.2181  13.7804 0001376  92.4052 267.7097 15.08856251135089,6917.831,95.437,540.648,538.744,0.0
50185.0,STARLINK-3279,PAYLOAD,2024-05-09 20:25:23,15.08844473,0.0001383,53.2175,11.7,98.2031,261.9118,0.00035926,5.435e-05,0.0,0 STARLINK-3279,1 50185U 21125AF  24130.85097017  .00005435  00000-0  35926-3 0  9992,2 50185  53.2175  11.7000 0001383  98.2031 261.9118 15.08844473135158,6917.867,95.437,540.688,538.775,0.0
50185.0,STARLINK-3279,PAYLOAD,2024-05-09 22:00:46,15.08845179,0.000136,53.2174,11.4029,99.5972,260.5173,0.0004434,6.777e-05,0.0,0 STARLINK-3279,1 50185U 21125AF  24130.91720928  .00006777  00000-0  44340-3 0  9993,2 50185  53.2174  11.4029 0001360  99.5972 260.5173 15.08845179135642,6917.865,95.437,540.67,538.789,0.0
50185.0,STARLINK-3279,PAYLOAD,2024-05-10 09:08:28,15.08864138,0.0001352,53.2175,9.3185,74.6533,285.4609,0.0012747,0.0002007,0.0,0 STARLINK-3279,1 50185U 21125AF  24131.38088668  .00020070  00000-0  12747-2 0  9990,2 50185  53.2175   9.3185 0001352  74.6533 285.4609 15.08864138135231,6917.807,95.436,540.607,538.736,0.0
50185.0,STARLINK-3279,PAYLOAD,2024-05-10 20:16:10,15.08849986,0.0001272,53.2175,7.237,80.2204,279.8932,0.0011338,0.00017807,0.0,0 STARLINK-3279,1 50185U 21125AF  24131.84457008  .00017807  00000-0  11338-2 0  9998,2 50185  53.2175   7.2370 0001272  80.2204 279.8932 15.08849986135301,6917.85,95.437,540.595,538.835,0.0
50185.0,STARLINK-3279,PAYLOAD,2024-05-10 21:51:34,15.0885118,0.0001417,53.2167,6.9386,80.9842,279.131,0.0011908,0.0001872,0.0,0 STARLINK-3279,1 50185U 21125AF  24131.91081023  .00018720  00000-0  11908-2 0  9994,2 50185  53.2167   6.9386 0001417  80.9842 279.1310 15.08851180135796,6917.846,95.437,540.691,538.731,0.0
50185.0,STARLINK-3279,PAYLOAD,2024-05-11 21:42:19,15.08809802,0.0001657,53.217,2.4723,121.0276,239.0879,-0.0041467,-0.00065628,0.0,0 STARLINK-3279,1 50185U 21125AF  24132.90439031 -.00065628  00000-0 -41467-2 0  9994,2 50185  53.2170   2.4723 0001657 121.0276 239.0879 15.08809802135463,6917.973,95.439,540.984,538.691,0.0
50185.0,STARLINK-3279,PAYLOAD,2024-05-12 00:53:06,15.08752449,0.0001582,53.2166,1.8826,98.4079,261.7093,0.00076785,0.00011924,0.0,0 STARLINK-3279,1 50185U 21125AF  24133.03687902  .00011924  00000-0  76785-3 0  9991,2 50185  53.2166   1.8826 0001582  98.4079 261.7093 15.08752449135486,6918.148,95.443,541.107,538.919,0.0
50185.0,STARLINK-3279,PAYLOAD,2024-05-12 21:33:10,15.08821025,0.0001839,53.2182,358.0151,94.5984,265.5218,0.0045861,0.00073423,0.0,0 STARLINK-3279,1 50185U 21125AF  24133.89804142  .00073423  00000-0  45861-2 0  9994,2 50185  53.2182 358.0151 0001839  94.5984 265.5218 15.08821025135612,6917.938,95.439,541.076,538.531,0.0
50185.0,STARLINK-3279,PAYLOAD,2024-05-13 15:02:25,15.08873976,0.0001593,53.2185,354.7509,89.5447,270.5728,0.0033439,0.00053383,0.0,0 STARLINK-3279,1 50185U 21125AF  24134.62668095  .00053383  00000-0  33439-2 0  9992,2 50185  53.2185 354.7509 0001593  89.5447 270.5728 15.08873976136200,6917.777,95.435,540.744,538.54,0.0
50185.0,STARLINK-3279,PAYLOAD,2024-05-13 21:23:57,15.08869646,0.0001625,53.2184,353.5559,86.578,273.5398,0.0014897,0.00023519,0.0,0 STARLINK-3279,1 50185U 21125AF  24134.89163617  .00023519  00000-0  14897-2 0  9996,2 50185  53.2184 353.5559 0001625  86.5780 273.5398 15.08869646136243,6917.79,95.436,540.779,538.531,0.0
50185.0,STARLINK-3279,PAYLOAD,2024-05-14 14:53:10,15.08875581,0.0001269,53.2177,350.2895,88.2367,271.877,0.00076969,0.00011995,0.0,0 STARLINK-3279,1 50185U 21125AF  24135.62026347  .00011995  00000-0  76969-3 0  9990,2 50185  53.2177 350.2895 0001269  88.2367 271.8770 15.08875581136358,6917.772,95.435,540.514,538.759,0.0
50185.0,STARLINK-3279,PAYLOAD,2024-05-14 21:14:42,15.08877111,0.0001399,53.2179,349.0999,89.7999,270.3153,0.00063317,9.813e-05,0.0,0 STARLINK-3279,1 50185U 21125AF  24135.88521785  .00009813  00000-0  63317-3 0  9993,2 50185  53.2179 349.0999 0001399  89.7999 270.3153 15.08877111135913,6917.767,95.435,540.6,538.664,0.0
50185.0,STARLINK-3279,PAYLOAD,2024-05-15 13:08:33,15.08826172,7.17e-05,53.2169,346.1197,1.7663,358.3331,-0.0018167,-0.00029072,0.0,0 STARLINK-3279,1 50185U 21125AF  24136.54760940 -.00029072  00000-0 -18167-2 0  9998,2 50185  53.2169 346.1197 0000717   1.7663 358.3331 15.08826172136013,6917.923,95.438,540.284,539.292,0.0
50185.0,STARLINK-3279,PAYLOAD,2024-05-15 21:05:29,15.08842531,0.0001297,53.2162,344.632,49.2786,310.8319,-0.00030233,-5.097e-05,0.0,0 STARLINK-3279,1 50185U 21125AF  24136.87881053 -.00005097  00000-0 -30233-3 0  9993,2 50185  53.2162 344.6320 0001297  49.2786 310.8319 15.08842531136065,6917.873,95.437,540.635,538.84,0.0
50185.0,STARLINK-3279,PAYLOAD,2024-05-16 06:37:47,15.08854468,0.0001298,53.2167,342.8489,63.2814,296.8311,0.00024138,3.557e-05,0.0,0 STARLINK-3279,1 50185U 21125AF  24137.27624870  .00003557  00000-0  24138-3 0  9994,2 50185  53.2167 342.8489 0001298  63.2814 296.8311 15.08854468136129,6917.836,95.437,540.599,538.803,0.0
50185.0,STARLINK-3279,PAYLOAD,2024-05-16 22:31:40,15.0883743,0.0002502,53.2173,339.8739,76.2681,283.8589,0.00028776,4.294e-05,0.0,0 STARLINK-3279,1 50185U 21125AF  24137.93865938  .00004294  00000-0  28776-3 0  9990,2 50185  53.2173 339.8739 0002502  76.2681 283.8589 15.08837430136702,6917.888,95.438,541.484,538.022,0.0
50185.0,STARLINK-3279,PAYLOAD,2024-05-17 06:28:35,15.08850552,0.0001506,53.2167,338.3871,77.5434,282.5726,0.00055058,8.488e-05,0.0,0 STARLINK-3279,1 50185U 21125AF  24138.26985245  .00008488  00000-0  55058-3 0  9993,2 50185  53.2167 338.3871 0001506  77.5434 282.5726 15.08850552136270,6917.848,95.437,540.755,538.671,0.0
50185.0,STARLINK-3279,PAYLOAD,2024-05-17 22:22:27,15.08820347,0.0001202,53.2152,335.4153,78.0116,282.1011,-0.00017845,-3.125e-05,0.0,0 STARLINK-3279,1 50185U 21125AF  24138.93226687 -.00003125  00000-0 -17845-3 0  9992,2 50185  53.2152 335.4153 0001202  78.0116 282.1011 15.08820347136857,6917.94,95.439,540.637,538.974,0.0
50185.0,STARLINK-3279,PAYLOAD,2024-05-18 12:40:56,15.08853208,0.0002079,53.2141,332.7395,89.6779,270.4451,0.00076952,0.00011985,0.0,0 STARLINK-3279,1 50185U 21125AF  24139.52842686  .00011985  00000-0  76952-3 0  9996,2 50185  53.2141 332.7395 0002079  89.6779 270.4451 15.08853208136466,6917.84,95.437,541.143,538.267,0.0
